RecordID,Address,City,State,Zip
1,515 E Peltason Dr,Irvine,CA,92617
2,4 Alcott Ct,Irvine,CA,92617
3,16 Joyce Ct,Irvine,CA,92617
4,11 Murasaki St,Irvine,CA,92617
5,10 Whistler Ct,Irvine,CA,92617
6,25 Harvey Ct,Irvine,CA,92617
7,18 Murasaki St,Irvine,CA,92617
8,20 Newton Ct,Irvine,CA,92617
9,26 McClintock Ct,Irvine,CA,92617
10,4 Gibbs Ct,Irvine,CA,92617
11,26 Whistler Ct,Irvine,CA,92617
12,20 Whitman Ct,Irvine,CA,92617
13,16 Whitman Ct,Irvine,CA,92617
14,22 Young,Irvine,CA,92617
15,21 Harvey Ct,Irvine,CA,92617
16,40 Gabrielino Dr,Irvine,CA,92617
17,14 Gibbs Ct,Irvine,CA,92617
18,67 Whitman Ct,Irvine,CA,92617
19,26 Young,Irvine,CA,92617
20,20 Alcott Ct,Irvine,CA,92617
21,7 Gibbs Ct,Irvine,CA,92617
22,10 Fuertes,Irvine,CA,92617
23,17 Harvey Ct,Irvine,CA,92617
24,3 Alcott Ct,Irvine,CA,92617
25,24 Alcott Ct,Irvine,CA,92617
26,30 Perkins Ct,Irvine,CA,92617
27,1 Virgil Ct,Irvine,CA,92617
28,29 Murasaki St,Irvine,CA,92617
29,21 Murasaki St,Irvine,CA,92617
30,7 Virgil Ct,Irvine,CA,92617
31,55 Schubert Ct,Irvine,CA,92617
32,6 Fuertes,Irvine,CA,92617
33,73 Whitman Ct,Irvine,CA,92617
34,5 Owen Ct,Irvine,CA,92617
35,60 Whitman Ct,Irvine,CA,92617
36,14 Joyce Ct,Irvine,CA,92617
37,4 Virgil Ct,Irvine,CA,92617
38,14 Dickens Ct,Irvine,CA,92617
39,6 Gibbs Ct,Irvine,CA,92617
40,19 Dickens Ct,Irvine,CA,92617
41,8 Blake Ct,Irvine,CA,92617
42,12 Blake Ct,Irvine,CA,92617
43,10 Thompson Ct,Irvine,CA,92617
44,38 Gabrielino Dr,Irvine,CA,92617
45,12 Handel Ct,Irvine,CA,92617
46,3 Twain,Irvine,CA,92617
47,14 Russell Ct,Irvine,CA,92617
48,5 Murasaki St,Irvine,CA,92617
49,1 Zola Ct,Irvine,CA,92617
50,2 Owen Ct,Irvine,CA,92617
51,7 Dickens Ct,Irvine,CA,92617
52,11 Fuertes,Irvine,CA,92617
53,18 Alcott Ct,Irvine,CA,92617
54,127 Schubert Ct,Irvine,CA,92617
55,19 Murasaki St,Irvine,CA,92617
56,1 Alcott Ct,Irvine,CA,92617
57,31 Murasaki St,Irvine,CA,92617
58,99 Schubert Ct,Irvine,CA,92617
59,8 Virgil Ct,Irvine,CA,92617
60,125 Schubert Ct,Irvine,CA,92617
61,12 Curie Ct,Irvine,CA,92617
62,57 Schubert Ct,Irvine,CA,92617
63,11 Virgil Ct,Irvine,CA,92617
64,103 Schubert Ct,Irvine,CA,92617
65,24 Perkins Ct,Irvine,CA,92617
66,93 Schubert Ct,Irvine,CA,92617
67,22 McClintock Ct,Irvine,CA,92617
68,81 Schubert Ct,Irvine,CA,92617
69,48 Schubert Ct,Irvine,CA,92617
70,16 Eliot Ct,Irvine,CA,92617
71,24 Russell Ct,Irvine,CA,92617
72,12 Frost,Irvine,CA,92617
73,14 Thompson Ct,Irvine,CA,92617
74,14 Murasaki St,Irvine,CA,92617
75,1 Twain,Irvine,CA,92617
76,1 Murasaki St,Irvine,CA,92617
77,23 Murasaki St,Irvine,CA,92617
78,18 Fuertes,Irvine,CA,92617
79,12 Dickens Ct,Irvine,CA,92617
80,12 Joyce Ct,Irvine,CA,92617
81,24 Harvey Ct,Irvine,CA,92617
82,22 Perkins Ct,Irvine,CA,92617
83,18 Joyce Ct,Irvine,CA,92617
84,5 Dickens Ct,Irvine,CA,92617
85,34 Gabrielino Dr,Irvine,CA,92617
86,8 Owen Ct,Irvine,CA,92617
87,61 Schubert Ct,Irvine,CA,92617
88,24 Mendel Ct,Irvine,CA,92617
89,14 Eliot Ct,Irvine,CA,92617
90,12 Owen Ct,Irvine,CA,92617
91,20 Perkins Ct,Irvine,CA,92617
92,22 Whistler Ct,Irvine,CA,92617
93,77 Whitman Ct,Irvine,CA,92617
94,14 Newton Ct,Irvine,CA,92617
95,26 Los Trancos Dr,Irvine,CA,92617
96,2 Urey Ct,Irvine,CA,92617
97,6 Perkins Ct,Irvine,CA,92617
98,5 Whistler Ct,Irvine,CA,92617
99,5 Alcott Ct,Irvine,CA,92617
100,16 Harvey Ct,Irvine,CA,92617
101,8 Thompson Ct,Irvine,CA,92617
102,6 Alcott Ct,Irvine,CA,92617
103,15 Virgil Ct,Irvine,CA,92617
104,2 Twain,Irvine,CA,92617
105,28 Young,Irvine,CA,92617
106,6 Dickens Ct,Irvine,CA,92617
107,15 Zola Ct,Irvine,CA,92617
108,27 Harvey Ct,Irvine,CA,92617
109,7 Owen Ct,Irvine,CA,92617
110,10 Russell Ct,Irvine,CA,92617
111,10 McClintock Ct,Irvine,CA,92617
112,17 Fuertes,Irvine,CA,92617
113,139 Schubert Ct,Irvine,CA,92617
114,109 Schubert Ct,Irvine,CA,92617
115,9 Zola Ct,Irvine,CA,92617
116,15 Harvey Ct,Irvine,CA,92617
117,7 Fuertes,Irvine,CA,92617
118,14 Whistler Ct,Irvine,CA,92617
119,76 Whitman Ct,Irvine,CA,92617
120,18 Virgil Ct,Irvine,CA,92617
121,24 Dickens Ct,Irvine,CA,92617
122,6 Virgil Ct,Irvine,CA,92617
123,18 Dickens Ct,Irvine,CA,92617
124,18 Whitman Ct,Irvine,CA,92617
125,11 Dickens Ct,Irvine,CA,92617
126,18 Perkins Ct,Irvine,CA,92617
127,2 Gibbs Ct,Irvine,CA,92617
128,44 Schubert Ct,Irvine,CA,92617
129,16 Handel Ct,Irvine,CA,92617
130,3 Murasaki St,Irvine,CA,92617
131,131 Schubert Ct,Irvine,CA,92617
132,20 Fuertes,Irvine,CA,92617
133,5 Zola Ct,Irvine,CA,92617
134,16 Frost,Irvine,CA,92617
135,9 Murasaki St,Irvine,CA,92617
136,17 Murasaki St,Irvine,CA,92617
137,25 Whistler Ct,Irvine,CA,92617
138,1 Russell Ct,Irvine,CA,92617
139,28 Urey Ct,Irvine,CA,92617
140,14 Handel Ct,Irvine,CA,92617
141,6 Frost,Irvine,CA,92617
142,10 Twain,Irvine,CA,92617
143,3 Owen Ct,Irvine,CA,92617
144,4 Thompson Ct,Irvine,CA,92617
145,6 Blake Ct,Irvine,CA,92617
146,4 Fuertes,Irvine,CA,92617
147,71 Whitman Ct,Irvine,CA,92617
148,7 Russell Ct,Irvine,CA,92617
149,1 Owen Ct,Irvine,CA,92617
150,24 Young,Irvine,CA,92617
151,5 Twain,Irvine,CA,92617
152,10 Murasaki St,Irvine,CA,92617
153,26 Harvey Ct,Irvine,CA,92617
154,4 Blake Ct,Irvine,CA,92617
155,10 Gibbs Ct,Irvine,CA,92617
156,12 Thompson Ct,Irvine,CA,92617
157,28 Los Trancos Dr,Irvine,CA,92617
158,68 Whitman Ct,Irvine,CA,92617
159,8 Twain,Irvine,CA,92617
160,101 Gabrielino Dr,Irvine,CA,92617
161,8 Gibbs Ct,Irvine,CA,92617
162,135 Schubert Ct,Irvine,CA,92617
163,2 Thompson Ct,Irvine,CA,92617
164,18 Gibbs Ct,Irvine,CA,92617
165,15 Frost,Irvine,CA,92617
166,16 Whistler Ct,Irvine,CA,92617
167,17 Whitman Ct,Irvine,CA,92617
168,519 E Peltason Dr,Irvine,CA,92617
169,75 Whitman Ct,Irvine,CA,92617
170,8 Russell Ct,Irvine,CA,92617
171,4 Dickens Ct,Irvine,CA,92617
172,10 Zola Ct,Irvine,CA,92617
173,69 Whitman Ct,Irvine,CA,92617
174,10 Frost,Irvine,CA,92617
175,22 Mendel Ct,Irvine,CA,92617
176,9 Virgil Ct,Irvine,CA,92617
177,3 Russell Ct,Irvine,CA,92617
178,14 Harvey Ct,Irvine,CA,92617
179,12 Murasaki St,Irvine,CA,92617
180,2 Murasaki St,Irvine,CA,92617
181,2 Dickens Ct,Irvine,CA,92617
182,14 Zola Ct,Irvine,CA,92617
183,22 Newton Ct,Irvine,CA,92617
184,4 Murasaki St,Irvine,CA,92617
185,22 Harvey Ct,Irvine,CA,92617
186,2 Virgil Ct,Irvine,CA,92617
187,39 Gabrielino Dr,Irvine,CA,92617
188,8 Dickens Ct,Irvine,CA,92617
189,18 Harvey Ct,Irvine,CA,92617
190,22 Russell Ct,Irvine,CA,92617
191,20 Whistler Ct,Irvine,CA,92617
192,101 Schubert Ct,Irvine,CA,92617
193,201 Gabrielino Dr,Irvine,CA,92617
194,75 Schubert Ct,Irvine,CA,92617
195,16 Gibbs Ct,Irvine,CA,92617
196,27 Murasaki St,Irvine,CA,92617
197,2 Schubert Ct,Irvine,CA,92617
198,32 Harvey Ct,Irvine,CA,92617
199,117 Schubert Ct,Irvine,CA,92617
200,6 Owen Ct,Irvine,CA,92617
201,20 Curie Ct,Irvine,CA,92617
202,4 Twain,Irvine,CA,92617
203,9 Alcott Ct,Irvine,CA,92617
204,22 Alcott Ct,Irvine,CA,92617
205,16 Curie Ct,Irvine,CA,92617
206,9 Frost,Irvine,CA,92617
207,133 Schubert Ct,Irvine,CA,92617
208,119 Schubert Ct,Irvine,CA,92617
209,97 Schubert Ct,Irvine,CA,92617
210,74 Whitman Ct,Irvine,CA,92617
211,14 Virgil Ct,Irvine,CA,92617
212,115 Schubert Ct,Irvine,CA,92617
213,11 Zola Ct,Irvine,CA,92617
214,87 Schubert Ct,Irvine,CA,92617
215,137 Schubert Ct,Irvine,CA,92617
216,22 Dickens Ct,Irvine,CA,92617
217,41 Gabrielino Dr,Irvine,CA,92617
218,95 Schubert Ct,Irvine,CA,92617
219,23 Harvey Ct,Irvine,CA,92617
220,8 Perkins Ct,Irvine,CA,92617
221,16 Fuertes,Irvine,CA,92617
222,83 Schubert Ct,Irvine,CA,92617
223,20 Harvey Ct,Irvine,CA,92617
224,14 Perkins Ct,Irvine,CA,92617
225,5 Virgil Ct,Irvine,CA,92617
226,8 Whistler Ct,Irvine,CA,92617
227,18 Mendel Ct,Irvine,CA,92617
228,35 Gabrielino Dr,Irvine,CA,92617
229,89 Schubert Ct,Irvine,CA,92617
230,14 Fuertes,Irvine,CA,92617
231,72 Whitman Ct,Irvine,CA,92617
232,2 Russell Ct,Irvine,CA,92617
233,51 Schubert Ct,Irvine,CA,92617
234,16 Alcott Ct,Irvine,CA,92617
235,2 Alcott Ct,Irvine,CA,92617
236,6 Thompson Ct,Irvine,CA,92617
237,8 Murasaki St,Irvine,CA,92617
238,24 Los Trancos Dr,Irvine,CA,92617
239,5 Fuertes,Irvine,CA,92617
240,16 Dickens Ct,Irvine,CA,92617
241,16 Newton Ct,Irvine,CA,92617
242,16 Thompson Ct,Irvine,CA,92617
243,18 Newton Ct,Irvine,CA,92617
244,12 Russell Ct,Irvine,CA,92617
245,5 Gabrielino Dr,Irvine,CA,92617
246,801 Gabrielino Dr,Irvine,CA,92617
247,18 Thompson Ct,Irvine,CA,92617
248,9 Owen Ct,Irvine,CA,92617
249,18 Frost,Irvine,CA,92617
250,42 Schubert Ct,Irvine,CA,92617
251,901 Gabrielino Dr,Irvine,CA,92617
252,12 Whistler Ct,Irvine,CA,92617
253,2 Zola Ct,Irvine,CA,92617
254,401 Gabrielino Dr,Irvine,CA,92617
255,53 Schubert Ct,Irvine,CA,92617
256,2 Blake Ct,Irvine,CA,92617
257,16 Virgil Ct,Irvine,CA,92617
258,40 Urey Ct,Irvine,CA,92617
259,107 Schubert Ct,Irvine,CA,92617
260,10 Blake Ct,Irvine,CA,92617
261,17 Dickens Ct,Irvine,CA,92617
262,14 McClintock Ct,Irvine,CA,92617
263,12 Zola Ct,Irvine,CA,92617
264,10 Dickens Ct,Irvine,CA,92617
265,26 Russell Ct,Irvine,CA,92617
266,7 Whistler Ct,Irvine,CA,92617
267,12 Alcott Ct,Irvine,CA,92617
268,105 Schubert Ct,Irvine,CA,92617
269,30 Urey Ct,Irvine,CA,92617
270,7 Twain,Irvine,CA,92617
271,26 Perkins Ct,Irvine,CA,92617
272,49 Schubert Ct,Irvine,CA,92617
273,20 Mendel Ct,Irvine,CA,92617
274,3 Virgil Ct,Irvine,CA,92617
275,601 Gabrielino Dr,Irvine,CA,92617
276,1001 Gabrielino Dr,Irvine,CA,92617
277,10 Alcott Ct,Irvine,CA,92617
278,20 Gibbs Ct,Irvine,CA,92617
279,15 Whitman Ct,Irvine,CA,92617
280,18 Curie Ct,Irvine,CA,92617
281,701 Gabrielino Dr,Irvine,CA,92617
282,1 Dickens Ct,Irvine,CA,92617
283,9 Russell Ct,Irvine,CA,92617
284,4 Owen Ct,Irvine,CA,92617
285,91 Schubert Ct,Irvine,CA,92617
286,9 Gibbs Ct,Irvine,CA,92617
287,24 Murasaki St,Irvine,CA,92617
288,26 Gabrielino Dr,Irvine,CA,92617
289,10 Perkins Ct,Irvine,CA,92617
290,18 Whistler Ct,Irvine,CA,92617
291,22 Gibbs Ct,Irvine,CA,92617
292,9 Dickens Ct,Irvine,CA,92617
293,24 Whistler Ct,Irvine,CA,92617
294,3 Zola Ct,Irvine,CA,92617
295,12 Newton Ct,Irvine,CA,92617
296,18 McClintock Ct,Irvine,CA,92617
297,7 Zola Ct,Irvine,CA,92617
298,7 Murasaki St,Irvine,CA,92617
299,11 Frost,Irvine,CA,92617
300,22 Murasaki St,Irvine,CA,92617
301,16 Perkins Ct,Irvine,CA,92617
302,123 Schubert Ct,Irvine,CA,92617
303,1101 Gabrielino Dr,Irvine,CA,92617
304,28 Harvey Ct,Irvine,CA,92617
305,81 Whitman Ct,Irvine,CA,92617
306,26 Mendel Ct,Irvine,CA,92617
307,6 Zola Ct,Irvine,CA,92617
308,8 Curie Ct,Irvine,CA,92617
309,14 Blake Ct,Irvine,CA,92617
310,24 Newton Ct,Irvine,CA,92617
311,37 Gabrielino Dr,Irvine,CA,92617
312,7 Alcott Ct,Irvine,CA,92617
313,4 Russell Ct,Irvine,CA,92617
314,11 Russell Ct,Irvine,CA,92617
315,15 Fuertes,Irvine,CA,92617
316,6 Murasaki St,Irvine,CA,92617
317,12 Virgil Ct,Irvine,CA,92617
318,16 Russell Ct,Irvine,CA,92617
319,70 Whitman Ct,Irvine,CA,92617
320,14 Curie Ct,Irvine,CA,92617
321,6 Urey Ct,Irvine,CA,92617
322,10 Owen Ct,Irvine,CA,92617
323,3 Dickens Ct,Irvine,CA,92617
324,5 Russell Ct,Irvine,CA,92617
325,20 Dickens Ct,Irvine,CA,92617
326,20 Russell Ct,Irvine,CA,92617
327,15 Dickens Ct,Irvine,CA,92617
328,4 Urey Ct,Irvine,CA,92617
329,63 Schubert Ct,Irvine,CA,92617
330,20 Murasaki St,Irvine,CA,92617
331,25 Murasaki St,Irvine,CA,92617
332,10 Virgil Ct,Irvine,CA,92617
333,9 Fuertes,Irvine,CA,92617
334,46 Schubert Ct,Irvine,CA,92617
335,28 Perkins Ct,Irvine,CA,92617
336,6 Russell Ct,Irvine,CA,92617
337,14 Alcott Ct,Irvine,CA,92617
338,15 Owen Ct,Irvine,CA,92617
339,8 Frost,Irvine,CA,92617
340,2 Fuertes,Irvine,CA,92617
341,12 Gibbs Ct,Irvine,CA,92617
342,129 Schubert Ct,Irvine,CA,92617
343,30 Los Trancos Dr,Irvine,CA,92617
344,8 Fuertes,Irvine,CA,92617
345,18 Handel Ct,Irvine,CA,92617
346,4 Zola Ct,Irvine,CA,92617
347,16 Murasaki St,Irvine,CA,92617
348,12 Eliot Ct,Irvine,CA,92617
349,8 Zola Ct,Irvine,CA,92617
350,8 Alcott Ct,Irvine,CA,92617
351,525 E Peltason Dr,Irvine,CA,92617
352,11 Owen Ct,Irvine,CA,92617
353,32 Twain,Irvine,CA,92617
